stk.v.4.3 

BEGIN Ephemeris 
 
NumberOfEphemerisPoints		146 
ScenarioEpoch	    1 Sep 2020 16:37:26.514335275 
InterpolationMethod		Lagrange 
InterpolationOrder		5 
CentralBody				Earth 
CoordinateSystem			TEME 
CoordinateSystemEpoch	  1 Sep 2020 16:37:26.514335275 
DistanceUnit			Kilometers 
 
EphemerisTimePosVel 
 
       0.00000000    -511.96089941    7140.08123486       0.05063174 -0.467483695 -0.042840752  7.449164549
 END Ephemeris 
